{
  "type": "FeatureCollection",
  "features": [
    {
      "type": "Feature",
      "properties": {
        "norad_id": 41581,
        "name": "INTELSAT 31 (IS-31)",
        "group": "intelsat",
        "lat": -0.023122831997144024,
        "lon": -153.6909421463163,
        "alt_km": 35777.76076154733,
        "timestamp": "2025-12-12T14:39:17.639293+00:00",
        "meta_object_name": "INTELSAT 31 (IS-31)",
        "meta_object_id": "2016-035A",
        "meta_epoch": "2025-12-11T21:37:13.469376",
        "meta_mean_motion": 1.00272085,
        "meta_eccentricity": 0.0001989,
        "meta_inclination": 0.0172,
        "meta_ra_of_asc_node": 268.6419,
        "meta_arg_of_pericenter": 307.2662,
        "meta_mean_anomaly": 94.1931,
        "meta_ephemeris_type": 0,
        "meta_classification_type": "U",
        "meta_norad_cat_id": 41581,
        "meta_element_set_no": 999,
        "meta_rev_at_epoch": 3480,
        "meta_bstar": 0,
        "meta_mean_motion_dot": -1.42e-06,
        "meta_mean_motion_ddot": 0,
        "tle_line1": "1 41581U 16035A   25345.90085034 -.00000142  00000+0  00000+0 0  9998",
        "tle_line2": "2 41581   0.0172 268.6419 0001989 307.2662  94.1931  1.00272085 34807"
      },
      "geometry": {
        "type": "Point",
        "coordinates": [
          -153.6909421463163,
          -0.023122831997144024
        ]
      }
    },
    {
      "type": "Feature",
      "properties": {
        "norad_id": 41747,
        "name": "INTELSAT 36 (IS-36)",
        "group": "intelsat",
        "lat": 0.005566618636068883,
        "lon": 9.865323503442754,
        "alt_km": 35781.23148617403,
        "timestamp": "2025-12-12T14:39:17.639303+00:00",
        "meta_object_name": "INTELSAT 36 (IS-36)",
        "meta_object_id": "2016-053A",
        "meta_epoch": "2025-12-11T19:58:55.649856",
        "meta_mean_motion": 1.00270488,
        "meta_eccentricity": 0.00016639,
        "meta_inclination": 0.0144,
        "meta_ra_of_asc_node": 14.364,
        "meta_arg_of_pericenter": 313.5424,
        "meta_mean_anomaly": 121.097,
        "meta_ephemeris_type": 0,
        "meta_classification_type": "U",
        "meta_norad_cat_id": 41747,
        "meta_element_set_no": 999,
        "meta_rev_at_epoch": 3407,
        "meta_bstar": 0,
        "meta_mean_motion_dot": -1.6e-07,
        "meta_mean_motion_ddot": 0,
        "tle_line1": "1 41747U 16053A   25345.83258854 -.00000016  00000+0  00000+0 0  9996",
        "tle_line2": "2 41747   0.0144  14.3640 0001663 313.5424 121.0970  1.00270488 34074"
      },
      "geometry": {
        "type": "Point",
        "coordinates": [
          9.865323503442754,
          0.005566618636068883
        ]
      }
    },
    {
      "type": "Feature",
      "properties": {
        "norad_id": 41945,
        "name": "INTELSAT 32E (IS-32E)",
        "group": "intelsat",
        "lat": -0.015609540246100444,
        "lon": -101.82743563665181,
        "alt_km": 35787.4032345349,
        "timestamp": "2025-12-12T14:39:17.639314+00:00",
        "meta_object_name": "INTELSAT 32E (IS-32E)",
        "meta_object_id": "2017-007B",
        "meta_epoch": "2025-12-12T04:42:54.023904",
        "meta_mean_motion": 1.00269838,
        "meta_eccentricity": 5.914e-05,
        "meta_inclination": 0.037,
        "meta_ra_of_asc_node": 83.6575,
        "meta_arg_of_pericenter": 281.4227,
        "meta_mean_anomaly": 103.6011,
        "meta_ephemeris_type": 0,
        "meta_classification_type": "U",
        "meta_norad_cat_id": 41945,
        "meta_element_set_no": 999,
        "meta_rev_at_epoch": 3235,
        "meta_bstar": 0,
        "meta_mean_motion_dot": -2.59e-06,
        "meta_mean_motion_ddot": 0,
        "tle_line1": "1 41945U 17007B   25346.19645861 -.00000259  00000+0  00000+0 0  9993",
        "tle_line2": "2 41945   0.0370  83.6575 0000591 281.4227 103.6011  1.00269838 32352"
      },
      "geometry": {
        "type": "Point",
        "coordinates": [
          -101.82743563665181,
          -0.015609540246100444
        ]
      }
    },
    {
      "type": "Feature",
      "properties": {
        "norad_id": 42818,
        "name": "INTELSAT 35E (IS-35E)",
        "group": "intelsat",
        "lat": -0.034069177343348085,
        "lon": -93.12623675126486,
        "alt_km": 35776.86730162484,
        "timestamp": "2025-12-12T14:39:17.639324+00:00",
        "meta_object_name": "INTELSAT 35E (IS-35E)",
        "meta_object_id": "2017-041A",
        "meta_epoch": "2025-12-12T06:28:06.449376",
        "meta_mean_motion": 1.00273512,
        "meta_eccentricity": 0.00020807,
        "meta_inclination": 0.0179,
        "meta_ra_of_asc_node": 6.3053,
        "meta_arg_of_pericenter": 255.2527,
        "meta_mean_anomaly": 242.1846,
        "meta_ephemeris_type": 0,
        "meta_classification_type": "U",
        "meta_norad_cat_id": 42818,
        "meta_element_set_no": 999,
        "meta_rev_at_epoch": 3094,
        "meta_bstar": 0,
        "meta_mean_motion_dot": -2.28e-06,
        "meta_mean_motion_ddot": 0,
        "tle_line1": "1 42818U 17041A   25346.26951909 -.00000228  00000+0  00000+0 0  9998",
        "tle_line2": "2 42818   0.0179   6.3053 0002080 255.2527 242.1846  1.00273512 30941"
      },
      "geometry": {
        "type": "Point",
        "coordinates": [
          -93.12623675126486,
          -0.034069177343348085
        ]
      }
    },
    {
      "type": "Feature",
      "properties": {
        "norad_id": 42950,
        "name": "INTELSAT 37E (IS-37E)",
        "group": "intelsat",
        "lat": -0.031020634841187465,
        "lon": -76.60754644745649,
        "alt_km": 35774.24322429192,
        "timestamp": "2025-12-12T14:39:17.639335+00:00",
        "meta_object_name": "INTELSAT 37E (IS-37E)",
        "meta_object_id": "2017-059A",
        "meta_epoch": "2025-12-12T04:50:00.843360",
        "meta_mean_motion": 1.0027217,
        "meta_eccentricity": 0.00031043,
        "meta_inclination": 0.0177,
        "meta_ra_of_asc_node": 347.6728,
        "meta_arg_of_pericenter": 269.1018,
        "meta_mean_anomaly": 238.884,
        "meta_ephemeris_type": 0,
        "meta_classification_type": "U",
        "meta_norad_cat_id": 42950,
        "meta_element_set_no": 999,
        "meta_rev_at_epoch": 3019,
        "meta_bstar": 0,
        "meta_mean_motion_dot": -1.31e-06,
        "meta_mean_motion_ddot": 0,
        "tle_line1": "1 42950U 17059A   25346.20139865 -.00000131  00000+0  00000+0 0  9990",
        "tle_line2": "2 42950   0.0177 347.6728 0003104 269.1018 238.8840  1.00272170 30195"
      },
      "geometry": {
        "type": "Point",
        "coordinates": [
          -76.60754644745649,
          -0.031020634841187465
        ]
      }
    },
    {
      "type": "Feature",
      "properties": {
        "norad_id": 43632,
        "name": "AZERSPACE 2 (IS-38)",
        "group": "intelsat",
        "lat": -0.0031213012180520286,
        "lon": -13.504910415516223,
        "alt_km": 35784.79680171783,
        "timestamp": "2025-12-12T14:39:17.639345+00:00",
        "meta_object_name": "AZERSPACE 2 (IS-38)",
        "meta_object_id": "2018-074A",
        "meta_epoch": "2025-12-11T06:30:38.803680",
        "meta_mean_motion": 1.00271658,
        "meta_eccentricity": 0.00014523,
        "meta_inclination": 0.0184,
        "meta_ra_of_asc_node": 0.4784,
        "meta_arg_of_pericenter": 266.8936,
        "meta_mean_anomaly": 315.6295,
        "meta_ephemeris_type": 0,
        "meta_classification_type": "U",
        "meta_norad_cat_id": 43632,
        "meta_element_set_no": 999,
        "meta_rev_at_epoch": 2656,
        "meta_bstar": 0,
        "meta_mean_motion_dot": 1.43e-06,
        "meta_mean_motion_ddot": 0,
        "tle_line1": "1 43632U 18074A   25345.27128245  .00000143  00000+0  00000+0 0  9994",
        "tle_line2": "2 43632   0.0184   0.4784 0001452 266.8936 315.6295  1.00271658 26568"
      },
      "geometry": {
        "type": "Point",
        "coordinates": [
          -13.504910415516223,
          -0.0031213012180520286
        ]
      }
    },
    {
      "type": "Feature",
      "properties": {
        "norad_id": 43633,
        "name": "HORIZONS-3E",
        "group": "intelsat",
        "lat": -0.024157039035510294,
        "lon": 110.36686829674606,
        "alt_km": 35791.47324450191,
        "timestamp": "2025-12-12T14:39:17.639356+00:00",
        "meta_object_name": "HORIZONS-3E",
        "meta_object_id": "2018-074B",
        "meta_epoch": "2025-12-12T05:01:38.705664",
        "meta_mean_motion": 1.00269535,
        "meta_eccentricity": 0.00011419,
        "meta_inclination": 0.0432,
        "meta_ra_of_asc_node": 180.3522,
        "meta_arg_of_pericenter": 101.4221,
        "meta_mean_anomaly": 43.7961,
        "meta_ephemeris_type": 0,
        "meta_classification_type": "U",
        "meta_norad_cat_id": 43633,
        "meta_element_set_no": 999,
        "meta_rev_at_epoch": 2646,
        "meta_bstar": 0,
        "meta_mean_motion_dot": -2.1e-07,
        "meta_mean_motion_ddot": 0,
        "tle_line1": "1 43633U 18074B   25346.20947576 -.00000021  00000+0  00000+0 0  9991",
        "tle_line2": "2 43633   0.0432 180.3522 0001141 101.4221  43.7961  1.00269535 26468"
      },
      "geometry": {
        "type": "Point",
        "coordinates": [
          110.36686829674606,
          -0.024157039035510294
        ]
      }
    }
  ]
}